{
  "type": "FeatureCollection",
  "features": [
    {
      "type": "Feature",
      "properties": {
        "norad_id": 35459,
        "name": "COSMOS 2251 DEB",
        "group": "cosmos-2251-debris",
        "lat": 32.23163646860234,
        "lon": -172.52313339876542,
        "alt_km": 764.4635317031598,
        "timestamp": "2025-12-18T07:01:54.985774+00:00",
        "meta_object_name": "COSMOS 2251 DEB",
        "meta_object_id": "1993-036ALD",
        "meta_epoch": "2025-12-17T19:11:00.873024",
        "meta_mean_motion": 14.37469257,
        "meta_eccentricity": 0.00161114,
        "meta_inclination": 73.8694,
        "meta_ra_of_asc_node": 177.8806,
        "meta_arg_of_pericenter": 124.2019,
        "meta_mean_anomaly": 236.0663,
        "meta_ephemeris_type": 0,
        "meta_classification_type": "U",
        "meta_norad_cat_id": 35459,
        "meta_element_set_no": 999,
        "meta_rev_at_epoch": 58434,
        "meta_bstar": 0.00020652063,
        "meta_mean_motion_dot": 5.92e-06,
        "meta_mean_motion_ddot": 0,
        "tle_line1": "1 35459U 93036ALD 25351.79931566  .00000592  00000+0  20652-3 0  9992",
        "tle_line2": "2 35459  73.8694 177.8806 0016111 124.2019 236.0663 14.37469257584349"
      },
      "geometry": {
        "type": "Point",
        "coordinates": [
          -172.52313339876542,
          32.23163646860234
        ]
      }
    },
    {
      "type": "Feature",
      "properties": {
        "norad_id": 35462,
        "name": "COSMOS 2251 DEB",
        "group": "cosmos-2251-debris",
        "lat": -60.46071535380468,
        "lon": -131.73860730860645,
        "alt_km": 738.5805791188513,
        "timestamp": "2025-12-18T07:01:54.985784+00:00",
        "meta_object_name": "COSMOS 2251 DEB",
        "meta_object_id": "1993-036ALG",
        "meta_epoch": "2025-12-15T12:08:22.276032",
        "meta_mean_motion": 14.29319782,
        "meta_eccentricity": 0.00867718,
        "meta_inclination": 74.0367,
        "meta_ra_of_asc_node": 263.6601,
        "meta_arg_of_pericenter": 298.2214,
        "meta_mean_anomaly": 61.0193,
        "meta_ephemeris_type": 0,
        "meta_classification_type": "U",
        "meta_norad_cat_id": 35462,
        "meta_element_set_no": 999,
        "meta_rev_at_epoch": 66420,
        "meta_bstar": 0.0011070348,
        "meta_mean_motion_dot": 2.91e-05,
        "meta_mean_motion_ddot": 0,
        "tle_line1": "1 35462U 93036ALG 25349.50581338  .00002910  00000+0  11070-2 0  9999",
        "tle_line2": "2 35462  74.0367 263.6601 0086771 298.2214  61.0193 14.29319782664204"
      },
      "geometry": {
        "type": "Point",
        "coordinates": [
          -131.73860730860645,
          -60.46071535380468
        ]
      }
    },
    {
      "type": "Feature",
      "properties": {
        "norad_id": 35465,
        "name": "COSMOS 2251 DEB",
        "group": "cosmos-2251-debris",
        "lat": -61.91982655807375,
        "lon": 154.12553556452218,
        "alt_km": 722.8372028911308,
        "timestamp": "2025-12-18T07:01:54.985794+00:00",
        "meta_object_name": "COSMOS 2251 DEB",
        "meta_object_id": "1993-036ALK",
        "meta_epoch": "2025-12-17T13:03:02.562624",
        "meta_mean_motion": 14.44331537,
        "meta_eccentricity": 0.00642719,
        "meta_inclination": 73.9967,
        "meta_ra_of_asc_node": 188.0661,
        "meta_arg_of_pericenter": 347.2721,
        "meta_mean_anomaly": 12.6809,
        "meta_ephemeris_type": 0,
        "meta_classification_type": "U",
        "meta_norad_cat_id": 35465,
        "meta_element_set_no": 999,
        "meta_rev_at_epoch": 87311,
        "meta_bstar": 0.00028334394,
        "meta_mean_motion_dot": 9.72e-06,
        "meta_mean_motion_ddot": 0,
        "tle_line1": "1 35465U 93036ALK 25351.54377966  .00000972  00000+0  28334-3 0  9997",
        "tle_line2": "2 35465  73.9967 188.0661 0064271 347.2721  12.6809 14.44331537873113"
      },
      "geometry": {
        "type": "Point",
        "coordinates": [
          154.12553556452218,
          -61.91982655807375
        ]
      }
    },
    {
      "type": "Feature",
      "properties": {
        "norad_id": 35469,
        "name": "COSMOS 2251 DEB",
        "group": "cosmos-2251-debris",
        "lat": -57.09882849245441,
        "lon": -140.2714382116742,
        "alt_km": 716.9409550730006,
        "timestamp": "2025-12-18T07:01:54.985804+00:00",
        "meta_object_name": "COSMOS 2251 DEB",
        "meta_object_id": "1993-036ALP",
        "meta_epoch": "2025-12-17T10:03:24.635232",
        "meta_mean_motion": 14.49823782,
        "meta_eccentricity": 0.00766993,
        "meta_inclination": 74.0168,
        "meta_ra_of_asc_node": 15.0739,
        "meta_arg_of_pericenter": 169.3141,
        "meta_mean_anomaly": 190.9672,
        "meta_ephemeris_type": 0,
        "meta_classification_type": "U",
        "meta_norad_cat_id": 35469,
        "meta_element_set_no": 999,
        "meta_rev_at_epoch": 88179,
        "meta_bstar": 8.4078669e-05,
        "meta_mean_motion_dot": 3.07e-06,
        "meta_mean_motion_ddot": 0,
        "tle_line1": "1 35469U 93036ALP 25351.41903513  .00000307  00000+0  84079-4 0  9991",
        "tle_line2": "2 35469  74.0168  15.0739 0076699 169.3141 190.9672 14.49823782881797"
      },
      "geometry": {
        "type": "Point",
        "coordinates": [
          -140.2714382116742,
          -57.09882849245441
        ]
      }
    },
    {
      "type": "Feature",
      "properties": {
        "norad_id": 35475,
        "name": "COSMOS 2251 DEB",
        "group": "cosmos-2251-debris",
        "lat": 45.68753264173095,
        "lon": -42.2151417317901,
        "alt_km": 658.6282206795731,
        "timestamp": "2025-12-18T07:01:54.985814+00:00",
        "meta_object_name": "COSMOS 2251 DEB",
        "meta_object_id": "1993-036ALV",
        "meta_epoch": "2025-12-17T04:17:46.417344",
        "meta_mean_motion": 14.69825096,
        "meta_eccentricity": 0.00204153,
        "meta_inclination": 74.0209,
        "meta_ra_of_asc_node": 157.0129,
        "meta_arg_of_pericenter": 229.8269,
        "meta_mean_anomaly": 130.1115,
        "meta_ephemeris_type": 0,
        "meta_classification_type": "U",
        "meta_norad_cat_id": 35475,
        "meta_element_set_no": 999,
        "meta_rev_at_epoch": 65682,
        "meta_bstar": 0.0014653547,
        "meta_mean_motion_dot": 8.76e-05,
        "meta_mean_motion_ddot": 0,
        "tle_line1": "1 35475U 93036ALV 25351.17900946  .00008760  00000+0  14654-2 0  9999",
        "tle_line2": "2 35475  74.0209 157.0129 0020415 229.8269 130.1115 14.69825096656822"
      },
      "geometry": {
        "type": "Point",
        "coordinates": [
          -42.2151417317901,
          45.68753264173095
        ]
      }
    },
    {
      "type": "Feature",
      "properties": {
        "norad_id": 35476,
        "name": "COSMOS 2251 DEB",
        "group": "cosmos-2251-debris",
        "lat": 72.4799569601087,
        "lon": 164.478532107995,
        "alt_km": 630.515836834762,
        "timestamp": "2025-12-18T07:01:54.985825+00:00",
        "meta_object_name": "COSMOS 2251 DEB",
        "meta_object_id": "1993-036ALW",
        "meta_epoch": "2025-12-17T04:50:44.401920",
        "meta_mean_motion": 14.75771662,
        "meta_eccentricity": 0.00179105,
        "meta_inclination": 73.9788,
        "meta_ra_of_asc_node": 52.1544,
        "meta_arg_of_pericenter": 31.9252,
        "meta_mean_anomaly": 30.6621,
        "meta_ephemeris_type": 0,
        "meta_classification_type": "U",
        "meta_norad_cat_id": 35476,
        "meta_element_set_no": 999,
        "meta_rev_at_epoch": 87953,
        "meta_bstar": 0.0011974578,
        "meta_mean_motion_dot": 8.2e-05,
        "meta_mean_motion_ddot": 0,
        "tle_line1": "1 35476U 93036ALW 25351.20190280  .00008200  00000+0  11975-2 0  9998",
        "tle_line2": "2 35476  73.9788  52.1544 0017910  31.9252  30.6621 14.75771662879536"
      },
      "geometry": {
        "type": "Point",
        "coordinates": [
          164.478532107995,
          72.4799569601087
        ]
      }
    },
    {
      "type": "Feature",
      "properties": {
        "norad_id": 35580,
        "name": "COSMOS 2251 DEB",
        "group": "cosmos-2251-debris",
        "lat": 17.942784487138642,
        "lon": -16.08592680664071,
        "alt_km": 748.4927482448875,
        "timestamp": "2025-12-18T07:01:54.985835+00:00",
        "meta_object_name": "COSMOS 2251 DEB",
        "meta_object_id": "1993-036ALX",
        "meta_epoch": "2025-12-17T18:06:35.144352",
        "meta_mean_motion": 13.83894964,
        "meta_eccentricity": 0.02810325,
        "meta_inclination": 73.9009,
        "meta_ra_of_asc_node": 170.1954,
        "meta_arg_of_pericenter": 174.439,
        "meta_mean_anomaly": 185.9973,
        "meta_ephemeris_type": 0,
        "meta_classification_type": "U",
        "meta_norad_cat_id": 35580,
        "meta_element_set_no": 999,
        "meta_rev_at_epoch": 62326,
        "meta_bstar": 0.0016372529,
        "meta_mean_motion_dot": 2.442e-05,
        "meta_mean_motion_ddot": 0,
        "tle_line1": "1 35580U 93036ALX 25351.75457343  .00002442  00000+0  16373-2 0  9999",
        "tle_line2": "2 35580  73.9009 170.1954 0281032 174.4390 185.9973 13.83894964623268"
      },
      "geometry": {
        "type": "Point",
        "coordinates": [
          -16.08592680664071,
          17.942784487138642
        ]
      }
    }
  ]
}